ordinal{string},comment{string},originator{string},norad_cat_id{string},object_name{string},object_type{string},classification_type{string},intldes{string},epoch{timestamp},epoch_microseconds{integer},mean_motion{decimal},eccentricity{decimal},inclination{decimal},ra_of_asc_node{decimal},arg_of_pericenter{decimal},mean_anomaly{decimal},ephemeris_type{string},element_set_no{string},rev_at_epoch{integer},bstar{decimal},mean_motion_dot{decimal},mean_motion_ddot{string},file{string},tle_line0{string},tle_line1{string},tle_line2{string},object_id{string},object_number{string},semimajor_axis{decimal},period{decimal},apogee{decimal},perigee{decimal}
1,GENERATED VIA SPACETRACK.ORG API,JSPOC,33063,ORBCOMM FM 39,PAYLOAD,U,08031D,2019-02-21T20:41:03Z,911712,14.7256997599999995,0.00090729999999999999,48.4436000000000035,67.357600000000005,254.278300000000002,105.712800000000001,0,999,57380,2.07279999999999987e-05,-6.79999999999999948e-07,0,2414172,0 ORBCOMM FM 39,1 33063U 08031D   19052.86185083 -.00000068  00000-0  20728-4 0  9991,2 33063  48.4436  67.3576 0009073 254.2783 105.7128 14.72569976573803,2008-031D,33063,7031.01199999999972,97.7879999999999967,659.255999999999972,646.498000000000047
1,GENERATED VIA SPACETRACK.ORG API,JSPOC,42870,FLOCK 2K 32,PAYLOAD,U,17042AX,2019-02-21T20:41:07Z,745280,15.3832857399999998,0.000843899999999999967,96.955600000000004,301.687799999999982,289.728700000000003,70.3049000000000035,0,999,9000,0.000116650000000000003,4.33400000000000018e-05,0,2414564,0 FLOCK 2K 32,1 42870U 17042AX  19052.86189520 +.00004334 +00000-0 +11665-3 0  9997,2 42870 096.9556 301.6878 0008439 289.7287 070.3049 15.38328574090001,2017-042AX,42870,6829.1880000000001,93.6080000000000041,456.815999999999974,445.29000000000002
1,GENERATED VIA SPACETRACK.ORG API,JSPOC,25413,ORBCOMM FM 17,PAYLOAD,U,98046A,2019-02-21T20:41:09Z,396384,14.3078491299999992,0.000160000000000000013,44.9956000000000031,289.970899999999972,296.771400000000028,63.2967000000000013,0,999,7247,4.56920000000000023e-05,-1.90000000000000007e-07,0,2414564,0 ORBCOMM FM 17,1 25413U 98046A   19052.86191431 -.00000019 +00000-0 +45692-4 0  9993,2 25413 044.9956 289.9709 0001600 296.7714 063.2967 14.30784913072474,1998-046A,25413,7167.24499999999989,100.644000000000005,790.256999999999948,787.962999999999965
1,GENERATED VIA SPACETRACK.ORG API,JSPOC,44033,CATSAT-1,PAYLOAD,U,98067PZ,2019-02-21T20:41:28Z,159008,15.5411809200000004,0.000526100000000000049,51.6387,214.553200000000004,76.6212000000000018,283.53649999999999,0,999,330,0.000134069999999999995,8.40299999999999934e-05,0,2414160,0 CATSAT-1,1 44033U 98067PZ  19052.86213147  .00008403  00000-0  13407-3 0  9996,2 44033  51.6387 214.5532 0005261  76.6212 283.5365 15.54118092  3300,1998-067PZ,44033,6782.85400000000027,92.6569999999999965,408.286999999999978,401.149999999999977
1,GENERATED VIA SPACETRACK.ORG API,JSPOC,23636,INTELSAT 4 (PAS 4),PAYLOAD,U,95040A,2019-02-21T20:41:31Z,462080,0.971278540000000024,0.00285110000000000008,6.8857999999999997,56.904200000000003,189.615499999999997,164.4084,0,999,8518,0,-1.37000000000000001e-06,0,2414564,0 INTELSAT 4 (PAS 4),1 23636U 95040A   19052.86216970 -.00000137 +00000-0 +00000-0 0  9996,2 23636 006.8858 056.9042 0028511 189.6155 164.4084 00.97127854085187,1995-040A,23636,43069.7790000000023,1482.5809999999999,36814.4400000000023,36568.8470000000016
1,GENERATED VIA SPACETRACK.ORG API,JSPOC,23723,AMOS 5I (ASIASAT 2),PAYLOAD,U,95064A,2019-02-21T20:41:31Z,462080,0.993059040000000004,0.00148909999999999993,6.20120000000000005,58.8496000000000024,262.722800000000007,89.3195999999999941,0,999,8478,0,-2.57999999999999986e-06,0,2414564,0 AMOS 5I (ASIASAT 2),1 23723U 95064A   19052.86216970 -.00000258 +00000-0 +00000-0 0  9993,2 23723 006.2012 058.8496 0014891 262.7228 089.3196 00.99305904084784,1995-064A,23723,42437.6949999999997,1450.06400000000008,36122.7540000000008,35996.3660000000018
1,GENERATED VIA SPACETRACK.ORG API,JSPOC,41308,INTELSAT 29E,PAYLOAD,U,16004A,2019-02-21T20:41:46Z,537152,1.00272676000000005,0.000179499999999999999,0.0446999999999999967,266.067000000000007,63.4144000000000005,82.4161000000000001,0,999,1138,0,-3.05000000000000002e-06,0,2414564,0 INTELSAT 29E,1 41308U 16004A   19052.86234418 -.00000305 +00000-0 +00000-0 0  9999,2 41308 000.0447 266.0670 0001795 063.4144 082.4161 01.00272676011380,2016-004A,41308,42164.4820000000036,1436.08400000000006,35793.9150000000009,35778.7779999999984
1,GENERATED VIA SPACETRACK.ORG API,JSPOC,44029,CATSAT-2,PAYLOAD,U,98067PV,2019-02-21T20:41:53Z,341152,15.5411318499999993,0.000533900000000000021,51.6385999999999967,214.555200000000013,75.9304000000000059,284.228000000000009,0,999,339,0.000166889999999999996,0.000105799999999999997,0,2414564,0 CATSAT-2,1 44029U 98067PV  19052.86242293 +.00010580 +00000-0 +16689-3 0  9999,2 44029 051.6386 214.5552 0005339 075.9304 284.2280 15.54113185003397,1998-067PV,44029,6782.86800000000039,92.6569999999999965,408.355000000000018,401.112000000000023
1,GENERATED VIA SPACETRACK.ORG API,JSPOC,26382,FENGYUN 2B,PAYLOAD,U,00032A,2019-02-21T20:41:54Z,73824,1.00090908999999995,0.00068510000000000001,10.6466999999999992,35.2858000000000018,280.420200000000023,96.9117999999999995,0,999,6818,0,-3.14000000000000001e-06,0,2414564,0 FENGYUN 2B,1 26382U 00032A   19052.86243141 -.00000314 +00000-0 +00000-0 0  9991,2 26382 010.6467 035.2858 0006851 280.4202 096.9118 01.00090909068181,2000-032A,26382,42215.5140000000029,1438.69200000000001,35866.3009999999995,35808.4570000000022
1,GENERATED VIA SPACETRACK.ORG API,JSPOC,25884,GLOBALSTAR M027,PAYLOAD,U,99043B,2019-02-21T20:42:17Z,357760,11.0435599500000006,0.00210859999999999997,52.0183999999999997,199.28649999999999,221.826999999999998,138.091199999999986,0,999,88631,-0.000420850000000000011,-7.50000000000000019e-07,0,2414564,0 GLOBALSTAR M027,1 25884U 99043B   19052.86270090 -.00000075 +00000-0 -42085-3 0  9997,2 25884 052.0184 199.2865 0021086 221.8270 138.0912 11.04355995886310,1999-043B,25884,8517.83200000000033,130.391999999999996,2157.6579999999999,2121.73700000000008
1,GENERATED VIA SPACETRACK.ORG API,JSPOC,20549,COSMOS 2064,PAYLOAD,U,90029A,2019-02-21T20:42:28Z,544832,12.4718138500000002,0.0016527,73.9830000000000041,307.043700000000001,34.9187999999999974,34.4418999999999969,0,999,31492,0.00014700999999999999,5.99999999999999946e-08,0,2414564,0 COSMOS 2064,1 20549U 90029A   19052.86283038 +.00000006 +00000-0 +14701-3 0  9997,2 20549 073.9830 307.0437 0016527 034.9188 034.4419 12.47181385314924,1990-029A,20549,7854.44300000000021,115.459999999999994,1489.28899999999999,1463.327
1,GENERATED VIA SPACETRACK.ORG API,JSPOC,21303,COSMOS 2147,PAYLOAD,U,91033E,2019-02-21T20:42:58Z,102272,12.6508621300000001,0.00177709999999999999,82.5678999999999945,191.973199999999991,328.08420000000001,143.818999999999988,0,999,28223,2.93829999999999997e-05,1.60000000000000003e-07,0,2414564,0 COSMOS 2147,1 21303U 91033E   19052.86317248 +.00000016 +00000-0 +29383-4 0  9997,2 21303 082.5679 191.9732 0017771 328.0842 143.8190 12.65086213282237,1991-033E,21303,7780.15800000000036,113.825999999999993,1415.84899999999993,1388.19699999999989
1,GENERATED VIA SPACETRACK.ORG API,JSPOC,14452,METEOR 2-10,PAYLOAD,U,83109A,2019-02-21T20:43:17Z,141376,14.2647413800000002,0.00916110000000000015,81.1636000000000024,175.862400000000008,38.3231999999999999,322.440899999999999,0,999,83637,-4.26050000000000012e-06,2.99999999999999973e-08,0,2414564,0 METEOR 2-10,1 14452U 83109A   19052.86339284 +.00000003 +00000-0 -42605-5 0  9993,2 14452 081.1636 175.8624 0091611 038.3232 322.4409 14.26474138836376,1983-109A,14452,7181.67699999999968,100.947999999999993,869.333999999999946,737.75
1,GENERATED VIA SPACETRACK.ORG API,JSPOC,2649,OPS 9322 (IDSCS 9),PAYLOAD,U,67003B,2019-02-21T20:43:32Z,58336,1.08281650000000007,0.00335680000000000006,3.51219999999999999,57.7578999999999994,46.3843000000000032,313.940699999999993,0,999,11049,0,-9.9000000000000005e-07,0,2414564,0 OPS 9322 (IDSCS 9),1  2649U 67003B   19052.86356549 -.00000099 +00000-0 +00000-0 0  9999,2  2649 003.5122 057.7579 0033568 046.3843 313.9407 01.08281650110492,1967-003B,2649,40058.8609999999971,1329.86500000000001,33815.1949999999997,33546.2560000000012
1,GENERATED VIA SPACETRACK.ORG API,JSPOC,26378,EXPRESS 3A,PAYLOAD,U,00031A,2019-02-21T20:43:39Z,594144,0.987692259999999989,0.00060380000000000004,8.05129999999999946,48.8282999999999987,209.298699999999997,161.070300000000003,0,999,6783,0,-2.25000000000000006e-06,0,2414564,0 EXPRESS 3A,1 26378U 00031A   19052.86365271 -.00000225 +00000-0 +00000-0 0  9995,2 26378 008.0513 048.8283 0006038 209.2987 161.0703 00.98769226067833,2000-031A,26378,42591.2839999999997,1457.94299999999998,36238.8660000000018,36187.4329999999973
1,GENERATED VIA SPACETRACK.ORG API,JSPOC,6059,COSMOS 494,PAYLOAD,U,72043A,2019-02-21T20:43:49Z,721952,14.3556658800000001,0.00099649999999999999,74.055800000000005,300.841499999999996,17.295300000000001,342.853700000000003,0,999,44061,1.61819999999999985e-05,2.10000000000000001e-07,0,2414564,0 COSMOS 494,1  6059U 72043A   19052.86376993 +.00000021 +00000-0 +16182-4 0  9999,2  6059 074.0558 300.8415 0009965 017.2953 342.8537 14.35566588440616,1972-043A,6059,7151.32099999999991,100.308000000000007,780.312000000000012,766.058999999999969
1,GENERATED VIA SPACETRACK.ORG API,JSPOC,23816,INTELSAT 707,PAYLOAD,U,96015A,2019-02-21T20:44:02Z,205888,0.984823099999999951,0.00722420000000000007,4.77909999999999968,68.9026999999999958,290.286699999999996,60.5831999999999979,0,999,8362,0,-1.94000000000000006e-06,0,2414564,0 INTELSAT 707,1 23816U 96015A   19052.86391442 -.00000194 +00000-0 +00000-0 0  9990,2 23816 004.7791 068.9027 0072242 290.2867 060.5832 00.98482310083621,1996-015A,23816,42673.9669999999969,1462.19100000000003,36604.1169999999984,35987.5469999999987
